{
  "norad_id": 40749,
  "name": "BEIDOU-3S M1S",
  "history": [
    {
      "epoch": "2026-03-28T11:04:15.951936Z",
      "apogee_km": 21538.800436068457,
      "perigee_km": 21512.549645852803,
      "latitude_deg": 2.3993661699526558e-05,
      "longitude_deg": -47.114993032738994,
      "height_km": 21516.040409496683,
      "semi_major_axis_km": 27903.812040960627,
      "eccentricity": 0.00047038,
      "inclination_deg": 54.9387,
      "raan_deg": 304.8137,
      "arg_perigee_deg": 41.1359,
      "mean_anomaly_deg": 318.9389,
      "mean_motion_rev_day": 1.86254792
    }
  ]
}